AMAZONAS 3              
1 39078U 13006A   26171.37993708 -.00000287  00000+0  00000+0 0  9996
2 39078   0.0108 248.8820 0002138 243.2053 212.2865  1.00271547 44947
AZERSPACE 1             
1 39079U 13006B   26171.18727037  .00000128  00000+0  00000+0 0  9999
2 39079   0.0220  61.3800 0001442  56.9674 263.4413  1.00271706 48830
SBIRS GEO-2 (USA 241)   
1 39120U 13011A   26171.16820361 -.00000293  00000+0  00000+0 0  9998
2 39120   4.4956  52.5092 0002140  29.8679 196.7596  1.00271628 48569
EUTELSAT 117 WEST A     
1 39122U 13012A   26171.36572507 -.00000017  00000+0  00000+0 0  9993
2 39122   0.0223  39.9608 0002809  49.3889 194.0807  1.00272134 48462
ANIK G1                 
1 39127U 13014A   26171.36017014 -.00000078  00000+0  00000+0 0  9994
2 39127   0.0389 271.9613 0001634 172.0946 206.8551  1.00271735 48281
ZHONGXING-11            
1 39157U 13020A   26172.55204348 -.00000292  00000+0  00000+0 0  9992
2 39157   0.0291 298.5694 0002342 127.6537 140.1548  1.00273194 47948
EUTELSAT 7B             
1 39163U 13022A   26173.31822481  .00000049  00000+0  00000+0 0  9999
2 39163   0.0643   2.5189 0004436  36.0778 353.4507  1.00271187 47993
WGS F5 (USA 243)        
1 39168U 13024A   26171.38158376  .00000000  00000+0  00000+0 0  9993
2 39168   0.0190   1.7175 0000191   3.4151 348.3247  1.00268976 47208
DELTA 4 R/B             
1 39169U 13024B   26170.58453003 -.00000331  00000+0 -66905-3 0  9999
2 39169  25.5724  37.7818 8236010   9.7101 359.8216  1.10026941 52473
SES-6                   
1 39172U 13026A   26171.38401044 -.00000266  00000+0  00000+0 0  9998
2 39172   0.0186 337.8981 0002555 114.3836 274.0592  1.00272290 47756
BREEZE-M R/B            
1 39173U 13026B   26171.10687980 -.00000173  00000+0  00000+0 0  9991
2 39173  28.2103 306.7411 7669047 195.1866 111.7199  1.10514884 52286
IRNSS-1A                
1 39199U 13034A   26169.89544831  .00000051  00000+0  00000+0 0  9992
2 39199  35.7241  63.8469 0017589 183.2529  37.3106  1.00275723 47380
MUOS-2                  
1 39206U 13036A   26171.35478845 -.00000019  00000+0  00000+0 0  9993
2 39206   5.0011  45.5331 0051240 177.3818 345.3547  1.00273721 47226
ALPHASAT                
1 39215U 13038A   26171.32565470  .00000128  00000+0  00000+0 0  9993
2 39215   2.9990   1.4107 0001799  89.2089 320.0084  1.00272303 44054
INSAT-3D                
1 39216U 13038B   26171.27504292 -.00000345  00000+0  00000+0 0  9995
2 39216   1.9351  82.5055 0000638 326.5441  87.9271  1.00267986 47115
WGS F6 (USA 244)        
1 39222U 13041A   26171.04072507  .00000084  00000+0  00000+0 0  9999
2 39222   0.0193  12.6218 0000159 358.5435 136.5486  1.00271592 46090
ES'HAIL 1               
1 39233U 13044A   26171.18319701  .00000138  00000+0  00000+0 0  9999
2 39233   0.0469 356.4073 0001948  84.9069 278.5020  1.00270066 46654
GSAT-7                  
1 39234U 13044B   26171.40667204 -.00000081  00000+0  00000+0 0  9997
2 39234   0.0920  92.8909 0002973 191.2522 204.8299  1.00270906 45293
AMOS-4                  
1 39237U 13045A   26171.11969681  .00000002  00000+0  00000+0 0  9995
2 39237   0.0115 299.3424 0002571 122.6433 314.4515  1.00272245 46985
SL-23 R/B               
1 39238U 13045B   26171.14865725 -.00000106  00000+0  00000+0 0  9999
2 39238  26.3927  78.2069 6390693 110.4575 325.7436  2.10660927 98524
AEHF-3 (USA 246)        
1 39256U 13050A   26171.39475312  .00000023  00000+0  00000+0 0  9998
2 39256   5.3010  67.1548 0087858 188.0159  31.2798  1.00273393 45686
ASTRA 2E                
1 39285U 13056A   26173.32247150  .00000152  00000+0  00000+0 0  9991
2 39285   0.0684 321.2070 0002580 135.3199 318.5808  1.00268753 46463
TITAN 3C TRANSTAGE DEB  
1 39296U 68081AG  26171.11891681 -.00000053  00000+0  00000+0 0  9991
2 39296   1.6001  32.1129 0159813 311.7653  27.0719  1.00592677 51717
TITAN 3C TRANSTAGE DEB  
1 39297U 68081AH  26170.98124022 -.00000419  00000+0  00000+0 0  9990
2 39297   1.6125  25.6690 0183781 312.9498  45.2630  1.00395295 16505
TITAN 3C TRANSTAGE DEB  
1 39298U 68081AJ  26171.35955513  .00000060  00000+0  00000+0 0  9991
2 39298   1.6566  26.4959 0149486 320.2723 248.9677  1.00158513 66316
CZ-3B DEB               
1 39333U 10042E   26171.39328009  .00000267  00000+0  62135-2 0  9992
2 39333  24.5046  17.2576 7450939 137.2846 106.6551  1.91258943 90173
CZ-3B DEB               
1 39334U 10042F   26171.40192375 -.00000057  00000+0  00000+0 0  9998
2 39334  25.4467 238.0296 7380421  48.4046   4.0997  1.86381784 97880
CZ-3B DEB               
1 39337U 10042J   26170.88415376  .00000250  00000+0  35157-2 0  9999
2 39337  24.3488 112.9747 7543294 297.5417   7.0081  1.84293476 82758
CZ-3C DEB               
1 39338U 10057C   26170.63260296 -.00000117  00000+0 -22508-3 0  9999
2 39338  20.2607   6.4669 7182498 341.7687   2.0363  2.25955626104451
CZ-3C DEB               
1 39339U 10057D   26171.41284382  .00000047  00000+0  48511-2 0  9990
2 39339  20.8810 258.7054 7202163 205.2728 267.0106  2.14568501 99389
CZ-3C DEB               
1 39342U 10057G   26167.26445674 -.00000046  00000+0  38220-3 0  9992
2 39342  20.0080 100.7280 7215009 159.1476 355.4903  2.20684809102199
CZ-3C DEB               
1 39346U 10057L   26170.98363596  .00000023  00000+0  27825-2 0  9993
2 39346  20.1774 167.4636 7166042  25.0605 357.0394  2.17962109101005
CZ-3C DEB               
1 39348U 10057N   26171.19476750 -.00000067  00000+0  16610-3 0  9996
2 39348  20.5879 325.8250 7215609  37.7409 355.5035  2.26179883104462
CZ-3C DEB               
1 39350U 10057Q   26171.17216014  .00000026  00000+0  13851-2 0  9999
2 39350  20.3850  43.0355 7205517 269.2998 337.5174  2.22920015100039
CZ-3C DEB               
1 39352U 10057S   26167.56520527 -.00000010  00000+0  12100-2 0  9996
2 39352  20.4892 157.8546 7173651  32.8701  73.0207  2.18261469101006
CZ-3C DEB               
1 39353U 10057T   26163.50170727 -.00000272  00000+0 -16601-2 0  9991
2 39353  20.1910  79.2739 7156076 202.7663 354.3159  2.24416043103687
CZ-3C DEB               
1 39354U 10057U   26171.14273778  .00000006  00000+0  19453-2 0  9992
2 39354  20.4918  89.9634 7187672 169.3538 356.5560  2.22644538 98869
FM-6                    
1 39360U 13058A   26171.36558618  .00000000  00000+0  00000+0 0  9995
2 39360   0.0369  53.5945 0001400 119.5580 110.7383  1.00271043 46108
RADUGA-1M 3             
1 39375U 13062A   26169.79836442  .00000144  00000+0  00000+0 0  9993
2 39375   5.9627  72.3351 0001803 267.8367 249.2637  1.00273348 46124
BREEZE-M R/B            
1 39376U 13062B   26171.03934240 -.00000128  00000+0  00000+0 0  9992
2 39376   9.4251  51.7267 0232450 116.1579 246.1892  1.04209043 47977
COSMOS 1030 DEB         
1 39447U 78083T   26171.06455238 -.00000315  00000+0  00000+0 0  9991
2 39447  63.7206 188.9454 7028015   4.1499 359.5272  2.00235210 82808
SES-8                   
1 39460U 13071A   26171.33956891 -.00000274  00000+0  00000+0 0  9997
2 39460   0.0166 297.5628 0002743 151.4996  36.7317  1.00271927 44461
INMARSAT 5-F1           
1 39476U 13073A   26171.02070874  .00000023  00000+0  00000+0 0  9991
2 39476   0.0172  24.3286 0000585 304.0026   9.9817  1.00271043 45606
TKSAT-1 (TUPAC KATARI)  
1 39481U 13075A   26171.37473705 -.00000199  00000+0  00000+0 0  9992
2 39481   0.0366 192.3780 0002607 248.3219 235.5765  1.00273277 45636
EXPRESS-AM5             
1 39487U 13077A   26172.58123913 -.00000281  00000+0  00000+0 0  9999
2 39487   0.0148 293.4123 0000278  48.4894 277.1456  1.00271926 46408
BREEZE-M R/B            
1 39494U 13073C   26171.13054391 -.00000064  00000+0  00000+0 0  9995
2 39494  24.5395 184.7133 7413372 164.8593 244.4476  1.09861951 49306
GSAT-14                 
1 39498U 14001A   26171.40667204 -.00000081  00000+0  00000+0 0  9993
2 39498   0.0443  96.3297 0000794 170.7037 221.9650  1.00271396 45415
THAICOM 6               
1 39500U 14002A   26171.40753872 -.00000126  00000+0  00000+0 0  9995
2 39500   0.0737 106.6790 0004448   4.5118  22.6433  1.00272328 45491
TDRS 12                 
1 39504U 14004A   26171.38383712 -.00000277  00000+0  00000+0 0  9997
2 39504   3.9809  19.1631 0003091 194.6527 151.8973  1.00265941 44303
ABS-2                   
1 39508U 14006A   26173.47429564 -.00000084  00000+0  00000+0 0  9997
2 39508   0.0036  35.9722 0003942  40.0247  80.3124  1.00271804 45335
ATHENA-FIDUS            
1 39509U 14006B   26171.25691020  .00000149  00000+0  00000+0 0  9991
2 39509   0.0370  95.0650 0001319 351.4707 312.2200  1.00270703 45115
TURKSAT 4A              
1 39522U 14007A   26171.18649036  .00000141  00000+0  00000+0 0  9991
2 39522   0.0668 288.2837 0001004  16.0389  73.2267  1.00267919 44991
CZ-3C DEB               
1 39600U 10057X   26171.00823070 -.00000127  00000+0  33486-4 0  9996
2 39600  20.2761 331.1493 7221328  42.2355 354.9504  2.25363556103302
EXPRESS-AT1             
1 39612U 14010A   26172.47385001  .00000018  00000+0  00000+0 0  9990
2 39612   0.2700  85.5903 0003873  44.0452  13.4417  1.00304441 44861
EXPRESS-AT2             
1 39613U 14010B   26171.26029022  .00000073  00000+0  00000+0 0  9996
2 39613   0.0175 318.6576 0000823 346.7956 112.7065  1.00274646 44523
BREEZE-M R/B            
1 39614U 14010C   26170.30795430 -.00000167  00000+0  00000+0 0  9999
2 39614  10.9812  59.1911 0669665  52.2855 313.5439  0.90579990 40524
AMAZONAS 4A             
1 39616U 14011A   26171.37733707 -.00000257  00000+0  00000+0 0  9999
2 39616   0.0587 178.4109 0003921 293.4493 218.5631  1.00272928 44742
ASTRA 5B                
1 39617U 14011B   26171.32539470  .00000132  00000+0  00000+0 0  9997
2 39617   0.0635 312.5910 0002057 113.5023 343.0777  1.00268988 44698
IRNSS-1B                
1 39635U 14017A   26170.76140735  .00000109  00000+0  00000+0 0  9996
2 39635  28.9179 240.3593 0023150 189.6008 167.3236  1.00277178 44811
CTS DEB [ARRAY COVER]   
1 39688U 76004E   26171.01466352 -.00000092  00000+0  00000+0 0  9995
2 39688   3.2227 265.9733 0052789 186.7527  74.7590  1.00316021 42804
